STARLINK-35851          
1 66356U 25254J   25334.49606532  .00153139  00000+0  10287-2 0  9997
2 66356  53.1585 335.7058 0001426 107.9145 252.2030 15.74240535  3751
STARLINK-35817          
1 66357U 25254K   25334.49572672  .00151956  00000+0  10209-2 0  9994
2 66357  53.1585 335.7034 0001364  88.0657 272.0520 15.74240969  3759
STARLINK-35807          
1 66358U 25254L   25334.49538938  .00166604  00000+0  11169-2 0  9994
2 66358  53.1585 335.7009 0001519 100.7154 259.4037 15.74243339  3754
STARLINK-35805          
1 66359U 25254M   25334.49505074  .00233759  00000+0  15511-2 0  9991
2 66359  53.1581 335.6988 0001418  77.0368 283.0810 15.74269995  4891
STARLINK-35823          
1 66360U 25254N   25334.49437313  .00237901  00000+0  15771-2 0  9994
2 66360  53.1581 335.6935 0001270  91.2394 268.8771 15.74278746  3753
STARLINK-35813          
1 66361U 25254P   25334.49471194  .00209292  00000+0  13936-2 0  9993
2 66361  53.1583 335.6963 0001370  94.6186 265.4990 15.74264491  3752
STARLINK-35822          
1 66362U 25254Q   25334.49369784  .00264848  00000+0  17494-2 0  9996
2 66362  53.1580 335.6894 0001333  97.6825 262.4346 15.74282026  3751
STARLINK-35806          
1 66363U 25254R   25334.49403378  .00215397  00000+0  14323-2 0  9998
2 66363  53.1583 335.6913 0001293 111.3054 248.8104 15.74276663  3750
STARLINK-35797          
1 66364U 25254S   25334.49335975  .00192358  00000+0  12839-2 0  9997
2 66364  53.1581 335.6864 0001355  89.2133 270.9043 15.74261047  3752
STARLINK-35827          
1 66365U 25254T   25334.49268331  .00211652  00000+0  14088-2 0  9996
2 66365  53.1580 335.6826 0001301  99.3921 260.7246 15.74265447  3758
STARLINK-35845          
1 66366U 25254U   25334.49302203  .00211102  00000+0  14053-2 0  9996
2 66366  53.1579 335.6843 0001280 102.0966 258.0198 15.74263365  3756
STARLINK-35846          
1 66367U 25254V   25334.49234389  .00243711  00000+0  16142-2 0  9998
2 66367  53.1579 335.6795 0001185 109.1672 250.9476 15.74282243  3755
