CCSDS_OMM_VERS = 2.0
CREATION_DATE  = 
ORIGINATOR     = 

OBJECT_NAME    = STARLINK-35851
OBJECT_ID      = 2025-254J
CENTER_NAME    = EARTH
REF_FRAME      = TEME
TIME_SYSTEM    = UTC
MEAN_ELEMENT_THEORY = SGP/SGP4

EPOCH          = 2025-11-30T11:54:20.043648
MEAN_MOTION    = 15.74240535
ECCENTRICITY   = .00014264
INCLINATION    = 53.1585
RA_OF_ASC_NODE = 335.7058
ARG_OF_PERICENTER = 107.9145
MEAN_ANOMALY   = 252.2030

EPHEMERIS_TYPE = 0
CLASSIFICATION_TYPE = U
NORAD_CAT_ID   = 66356
ELEMENT_SET_NO = 999
REV_AT_EPOCH   = 375
BSTAR          = .10287206E-2
MEAN_MOTION_DOT = .153139E-2
MEAN_MOTION_DDOT = 0

CCSDS_OMM_VERS = 2.0
CREATION_DATE  = 
ORIGINATOR     = 

OBJECT_NAME    = STARLINK-35817
OBJECT_ID      = 2025-254K
CENTER_NAME    = EARTH
REF_FRAME      = TEME
TIME_SYSTEM    = UTC
MEAN_ELEMENT_THEORY = SGP/SGP4

EPOCH          = 2025-11-30T11:53:50.788608
MEAN_MOTION    = 15.74240969
ECCENTRICITY   = .00013646
INCLINATION    = 53.1585
RA_OF_ASC_NODE = 335.7034
ARG_OF_PERICENTER = 88.0657
MEAN_ANOMALY   = 272.0520

EPHEMERIS_TYPE = 0
CLASSIFICATION_TYPE = U
NORAD_CAT_ID   = 66357
ELEMENT_SET_NO = 999
REV_AT_EPOCH   = 375
BSTAR          = .10209356E-2
MEAN_MOTION_DOT = .151956E-2
MEAN_MOTION_DDOT = 0

CCSDS_OMM_VERS = 2.0
CREATION_DATE  = 
ORIGINATOR     = 

OBJECT_NAME    = STARLINK-35807
OBJECT_ID      = 2025-254L
CENTER_NAME    = EARTH
REF_FRAME      = TEME
TIME_SYSTEM    = UTC
MEAN_ELEMENT_THEORY = SGP/SGP4

EPOCH          = 2025-11-30T11:53:21.642432
MEAN_MOTION    = 15.74243339
ECCENTRICITY   = .00015194
INCLINATION    = 53.1585
RA_OF_ASC_NODE = 335.7009
ARG_OF_PERICENTER = 100.7154
MEAN_ANOMALY   = 259.4037

EPHEMERIS_TYPE = 0
CLASSIFICATION_TYPE = U
NORAD_CAT_ID   = 66358
ELEMENT_SET_NO = 999
REV_AT_EPOCH   = 375
BSTAR          = .11168729E-2
MEAN_MOTION_DOT = .166604E-2
MEAN_MOTION_DDOT = 0

CCSDS_OMM_VERS = 2.0
CREATION_DATE  = 
ORIGINATOR     = 

OBJECT_NAME    = STARLINK-35805
OBJECT_ID      = 2025-254M
CENTER_NAME    = EARTH
REF_FRAME      = TEME
TIME_SYSTEM    = UTC
MEAN_ELEMENT_THEORY = SGP/SGP4

EPOCH          = 2025-11-30T11:52:52.383936
MEAN_MOTION    = 15.74269995
ECCENTRICITY   = .00014182
INCLINATION    = 53.1581
RA_OF_ASC_NODE = 335.6988
ARG_OF_PERICENTER = 77.0368
MEAN_ANOMALY   = 283.0810

EPHEMERIS_TYPE = 0
CLASSIFICATION_TYPE = U
NORAD_CAT_ID   = 66359
ELEMENT_SET_NO = 999
REV_AT_EPOCH   = 489
BSTAR          = .15510692E-2
MEAN_MOTION_DOT = .233759E-2
MEAN_MOTION_DDOT = 0

CCSDS_OMM_VERS = 2.0
CREATION_DATE  = 
ORIGINATOR     = 

OBJECT_NAME    = STARLINK-35823
OBJECT_ID      = 2025-254N
CENTER_NAME    = EARTH
REF_FRAME      = TEME
TIME_SYSTEM    = UTC
MEAN_ELEMENT_THEORY = SGP/SGP4

EPOCH          = 2025-11-30T11:51:53.838432
MEAN_MOTION    = 15.74278746
ECCENTRICITY   = .00012704
INCLINATION    = 53.1581
RA_OF_ASC_NODE = 335.6935
ARG_OF_PERICENTER = 91.2394
MEAN_ANOMALY   = 268.8771

EPHEMERIS_TYPE = 0
CLASSIFICATION_TYPE = U
NORAD_CAT_ID   = 66360
ELEMENT_SET_NO = 999
REV_AT_EPOCH   = 375
BSTAR          = .15770998E-2
MEAN_MOTION_DOT = .237901E-2
MEAN_MOTION_DDOT = 0

CCSDS_OMM_VERS = 2.0
CREATION_DATE  = 
ORIGINATOR     = 

OBJECT_NAME    = STARLINK-35813
OBJECT_ID      = 2025-254P
CENTER_NAME    = EARTH
REF_FRAME      = TEME
TIME_SYSTEM    = UTC
MEAN_ELEMENT_THEORY = SGP/SGP4

EPOCH          = 2025-11-30T11:52:23.111616
MEAN_MOTION    = 15.74264491
ECCENTRICITY   = .00013706
INCLINATION    = 53.1583
RA_OF_ASC_NODE = 335.6963
ARG_OF_PERICENTER = 94.6186
MEAN_ANOMALY   = 265.4990

EPHEMERIS_TYPE = 0
CLASSIFICATION_TYPE = U
NORAD_CAT_ID   = 66361
ELEMENT_SET_NO = 999
REV_AT_EPOCH   = 375
BSTAR          = .13935627E-2
MEAN_MOTION_DOT = .209292E-2
MEAN_MOTION_DDOT = 0

CCSDS_OMM_VERS = 2.0
CREATION_DATE  = 
ORIGINATOR     = 

OBJECT_NAME    = STARLINK-35822
OBJECT_ID      = 2025-254Q
CENTER_NAME    = EARTH
REF_FRAME      = TEME
TIME_SYSTEM    = UTC
MEAN_ELEMENT_THEORY = SGP/SGP4

EPOCH          = 2025-11-30T11:50:55.493376
MEAN_MOTION    = 15.74282026
ECCENTRICITY   = .00013337
INCLINATION    = 53.1580
RA_OF_ASC_NODE = 335.6894
ARG_OF_PERICENTER = 97.6825
MEAN_ANOMALY   = 262.4346

EPHEMERIS_TYPE = 0
CLASSIFICATION_TYPE = U
NORAD_CAT_ID   = 66362
ELEMENT_SET_NO = 999
REV_AT_EPOCH   = 375
BSTAR          = .17493659E-2
MEAN_MOTION_DOT = .264848E-2
MEAN_MOTION_DDOT = 0

CCSDS_OMM_VERS = 2.0
CREATION_DATE  = 
ORIGINATOR     = 

OBJECT_NAME    = STARLINK-35806
OBJECT_ID      = 2025-254R
CENTER_NAME    = EARTH
REF_FRAME      = TEME
TIME_SYSTEM    = UTC
MEAN_ELEMENT_THEORY = SGP/SGP4

EPOCH          = 2025-11-30T11:51:24.518592
MEAN_MOTION    = 15.74276663
ECCENTRICITY   = .00012932
INCLINATION    = 53.1583
RA_OF_ASC_NODE = 335.6913
ARG_OF_PERICENTER = 111.3054
MEAN_ANOMALY   = 248.8104

EPHEMERIS_TYPE = 0
CLASSIFICATION_TYPE = U
NORAD_CAT_ID   = 66363
ELEMENT_SET_NO = 999
REV_AT_EPOCH   = 375
BSTAR          = .14322906E-2
MEAN_MOTION_DOT = .215397E-2
MEAN_MOTION_DDOT = 0

CCSDS_OMM_VERS = 2.0
CREATION_DATE  = 
ORIGINATOR     = 

OBJECT_NAME    = STARLINK-35797
OBJECT_ID      = 2025-254S
CENTER_NAME    = EARTH
REF_FRAME      = TEME
TIME_SYSTEM    = UTC
MEAN_ELEMENT_THEORY = SGP/SGP4

EPOCH          = 2025-11-30T11:50:26.282400
MEAN_MOTION    = 15.74261047
ECCENTRICITY   = .00013555
INCLINATION    = 53.1581
RA_OF_ASC_NODE = 335.6864
ARG_OF_PERICENTER = 89.2133
MEAN_ANOMALY   = 270.9043

EPHEMERIS_TYPE = 0
CLASSIFICATION_TYPE = U
NORAD_CAT_ID   = 66364
ELEMENT_SET_NO = 999
REV_AT_EPOCH   = 375
BSTAR          = .12839356E-2
MEAN_MOTION_DOT = .192358E-2
MEAN_MOTION_DDOT = 0

CCSDS_OMM_VERS = 2.0
CREATION_DATE  = 
ORIGINATOR     = 

OBJECT_NAME    = STARLINK-35827
OBJECT_ID      = 2025-254T
CENTER_NAME    = EARTH
REF_FRAME      = TEME
TIME_SYSTEM    = UTC
MEAN_ELEMENT_THEORY = SGP/SGP4

EPOCH          = 2025-11-30T11:49:27.837984
MEAN_MOTION    = 15.74265447
ECCENTRICITY   = .00013011
INCLINATION    = 53.1580
RA_OF_ASC_NODE = 335.6826
ARG_OF_PERICENTER = 99.3921
MEAN_ANOMALY   = 260.7246

EPHEMERIS_TYPE = 0
CLASSIFICATION_TYPE = U
NORAD_CAT_ID   = 66365
ELEMENT_SET_NO = 999
REV_AT_EPOCH   = 375
BSTAR          = .14087727E-2
MEAN_MOTION_DOT = .211652E-2
MEAN_MOTION_DDOT = 0

CCSDS_OMM_VERS = 2.0
CREATION_DATE  = 
ORIGINATOR     = 

OBJECT_NAME    = STARLINK-35845
OBJECT_ID      = 2025-254U
CENTER_NAME    = EARTH
REF_FRAME      = TEME
TIME_SYSTEM    = UTC
MEAN_ELEMENT_THEORY = SGP/SGP4

EPOCH          = 2025-11-30T11:49:57.103392
MEAN_MOTION    = 15.74263365
ECCENTRICITY   = .00012801
INCLINATION    = 53.1579
RA_OF_ASC_NODE = 335.6843
ARG_OF_PERICENTER = 102.0966
MEAN_ANOMALY   = 258.0198

EPHEMERIS_TYPE = 0
CLASSIFICATION_TYPE = U
NORAD_CAT_ID   = 66366
ELEMENT_SET_NO = 999
REV_AT_EPOCH   = 375
BSTAR          = .14053457E-2
MEAN_MOTION_DOT = .211102E-2
MEAN_MOTION_DDOT = 0

CCSDS_OMM_VERS = 2.0
CREATION_DATE  = 
ORIGINATOR     = 

OBJECT_NAME    = STARLINK-35846
OBJECT_ID      = 2025-254V
CENTER_NAME    = EARTH
REF_FRAME      = TEME
TIME_SYSTEM    = UTC
MEAN_ELEMENT_THEORY = SGP/SGP4

EPOCH          = 2025-11-30T11:48:58.512096
MEAN_MOTION    = 15.74282243
ECCENTRICITY   = .00011859
INCLINATION    = 53.1579
RA_OF_ASC_NODE = 335.6795
ARG_OF_PERICENTER = 109.1672
MEAN_ANOMALY   = 250.9476

EPHEMERIS_TYPE = 0
CLASSIFICATION_TYPE = U
NORAD_CAT_ID   = 66367
ELEMENT_SET_NO = 999
REV_AT_EPOCH   = 375
BSTAR          = .16141501E-2
MEAN_MOTION_DOT = .243711E-2
MEAN_MOTION_DDOT = 0

